[{"OBJECT_NAME":"IRIDIUM 100","OBJECT_ID":"2017-061B","EPOCH":"2026-03-09T22:53:38.663808","MEAN_MOTION":14.34217595,"ECCENTRICITY":0.00021334,"INCLINATION":86.3915,"RA_OF_ASC_NODE":66.6702,"ARG_OF_PERICENTER":88.8283,"MEAN_ANOMALY":271.3157,"EPHEMERIS_TYPE":0,"CLASSIFICATION_TYPE":"U","NORAD_CAT_ID":42956,"ELEMENT_SET_NO":999,"REV_AT_EPOCH":44055,"BSTAR":3.731497e-6,"MEAN_MOTION_DOT":3.0e-7,"MEAN_MOTION_DDOT":0},{"OBJECT_NAME":"SL-8 R\/B","OBJECT_ID":"1982-051B","EPOCH":"2026-03-09T22:27:17.819424","MEAN_MOTION":14.37352903,"ECCENTRICITY":0.00237807,"INCLINATION":74.0409,"RA_OF_ASC_NODE":260.904,"ARG_OF_PERICENTER":36.699,"MEAN_ANOMALY":323.5786,"EPHEMERIS_TYPE":0,"CLASSIFICATION_TYPE":"U","NORAD_CAT_ID":13242,"ELEMENT_SET_NO":999,"REV_AT_EPOCH":29100,"BSTAR":8.7672643e-5,"MEAN_MOTION_DOT":2.36e-6,"MEAN_MOTION_DDOT":0}]
